#Pass ID: 20260125_191608_FENGYUN 3G
#Satellite: FENGYUN 3G
#Configuration: FENGYUN 3G
#Start time: 2026-01-25 19:16:13.365053

#LorettStation: 1.0.0 05.05.2024
#Station: Regia
#Location: 37.494653 lon 55.929028 lat
#TLE: 1 56232U 23055A   26024.50237624  .00046442  00000+0  70049-3 0  9998
#TLE: 2 56232  49.9946   6.8827 0004106  76.8159 283.3267 15.54243337157673

#Time	Az	El	Level	SNR
#Closed at: 2026-01-25 19:16:08.365725